IRIDIUM 144             
1 43249U 18030A   25132.82906785  .00000023  00000+0  98297-6 0  9997
2 43249  86.3936  97.7887 0002404  88.8334 271.3137 14.34217663372776
IRIDIUM 149             
1 43250U 18030B   25132.41679906  .00000066  00000+0  16487-4 0  9992
2 43250  86.3935  97.9327 0002443  88.9509 271.1967 14.34217893372714
IRIDIUM 157             
1 43251U 18030C   25132.43582626  .00000098  00000+0  28020-4 0  9998
2 43251  86.3937  97.9691 0002190  80.6266 279.5178 14.34217791372699
IRIDIUM 140             
1 43252U 18030D   25132.45485464  .00000076  00000+0  20078-4 0  9994
2 43252  86.3936  97.9749 0002374  91.4224 268.7243 14.34217767372754
IRIDIUM 145             
1 43253U 18030E   25132.51193743  .00000084  00000+0  23021-4 0  9998
2 43253  86.3937  97.9238 0002642  90.1605 269.9894 14.34216981372691
IRIDIUM 146             
1 43254U 18030F   25132.42314187 -.00000006  00000+0 -91573-5 0  9990
2 43254  86.3935  97.9748 0002560  90.9324 269.2165 14.34217455372692
IRIDIUM 148             
1 43255U 18030G   25132.60075439  .00000298  00000+0  99550-4 0  9998
2 43255  86.3940  97.9375 0002562  85.7845 274.3643 14.34199961372753
IRIDIUM 142             
1 43256U 18030H   25132.42948520  .00000015  00000+0 -18430-5 0  9996
2 43256  86.3934  97.9125 0002774  88.7812 271.3701 14.34217781372698
